OBJECT_NAME,OBJECT_ID,EPOCH,MEAN_MOTION,ECCENTRICITY,INCLINATION,RA_OF_ASC_NODE,ARG_OF_PERICENTER,MEAN_ANOMALY,EPHEMERIS_TYPE,CLASSIFICATION_TYPE,NORAD_CAT_ID,ELEMENT_SET_NO,REV_AT_EPOCH,BSTAR,MEAN_MOTION_DOT,MEAN_MOTION_DDOT
INTELSAT 35E (IS-35E),2017-041A,2026-06-18T11:02:47.560416,1.00271137,.00020032,0.0196,10.0898,78.7192,309.0921,0,U,42818,999,3282,0,0,0
COSMOS 2520,2017-046A,2026-06-18T11:25:30.382176,1.00271321,.00012673,0.0475,93.6563,6.2150,23.1999,0,U,42907,999,3241,0,.131E-5,0
TDRS 13,2017-047A,2026-06-18T14:34:43.025952,1.00271663,.00145291,3.4521,2.7874,106.3561,4.9416,0,U,42915,999,3236,0,-.107E-5,0
QZS-3 (MICHIBIKI-3),2017-048A,2026-06-18T13:31:34.080096,1.00275425,.00019081,0.0677,167.8045,275.0114,153.8622,0,U,42917,999,3227,0,-.354E-5,0
AMAZONAS 5,2017-053A,2026-06-18T12:37:55.191072,1.00272137,.00020101,0.0314,327.6735,65.7866,1.7797,0,U,42934,999,3205,0,-.289E-5,0
ASIASAT 9,2017-057A,2026-06-18T15:12:50.522112,1.00266518,.00024655,0.0418,50.7631,30.3881,176.0940,0,U,42942,999,3187,0,0,0
INTELSAT 37E (IS-37E),2017-059A,2026-06-18T14:32:43.217664,1.00269170,.000259,0.0207,14.8074,97.8054,354.4310,0,U,42950,999,3208,0,0,0
BSAT-4A,2017-059B,2026-06-18T14:04:26.393376,1.00273940,.00040553,0.0343,348.5034,78.7987,160.4634,0,U,42951,999,3181,0,-.357E-5,0
QZS-4 (MICHIBIKI-4),2017-062A,2026-06-18T08:24:11.162880,1.00250086,.07450188,40.1070,343.4662,271.8091,274.2172,0,U,42965,999,3181,0,-.36E-5,0
SES-11 (ECHOSTAR 105),2017-063A,2026-06-18T12:25:26.387328,1.00270833,.00027441,0.0152,351.9974,80.6492,275.5157,0,U,42967,999,3173,0,-.95E-6,0
KOREASAT 5A,2017-067A,2026-06-18T13:27:34.462656,1.00270277,.00006532,0.0200,303.8202,129.0585,148.9569,0,U,42984,999,3154,0,-.364E-5,0
ALCOMSAT 1,2017-078A,2026-06-18T11:05:32.295840,1.00269166,.00022973,0.0288,266.2693,168.8948,333.1005,0,U,43039,999,3130,0,-.193E-5,0
SBIRS GEO-3 (USA 282),2018-009A,2026-06-18T13:52:32.070144,1.00271944,.00018962,2.1853,12.1896,65.5761,237.7794,0,U,43162,999,3085,0,.121E-5,0
AL YAH 3,2018-012A,2026-06-18T14:32:13.265376,1.00269803,.00039473,1.5565,83.0917,2.0468,19.6294,0,U,43174,999,3086,0,-.163E-5,0
SES-14,2018-012B,2026-06-18T12:41:47.320224,1.00275741,.00008559,0.0195,29.8723,72.0057,307.8305,0,U,43175,999,703,0,-.285E-5,0
GOES 17,2018-022A,2026-06-18T14:12:30.155616,1.00269560,.00004911,0.9417,85.6823,29.5169,275.2338,0,U,43226,999,3043,0,-.189E-5,0
HISPASAT 30W-6,2018-023A,2026-06-18T11:04:09.928128,1.00269727,.00057378,0.0456,42.9949,27.2662,332.4701,0,U,43228,999,3041,0,-.223E-5,0
SUPERBIRD-B3,2018-033A,2026-06-18T13:41:33.123264,1.00271724,.0000983,0.0102,25.5404,57.4847,191.1763,0,U,43271,999,3007,0,-.98E-6,0
HYLAS 4,2018-033B,2026-06-18T11:03:10.024416,1.00280023,.00012942,0.0174,20.9775,86.0301,291.9719,0,U,43272,999,3007,0,-.239E-5,0
IRNSS-1I,2018-035A,2026-06-15T20:09:20.172384,1.00272046,.00178117,28.7520,74.2167,181.5598,5.5147,0,U,43286,999,3006,0,.62E-6,0
USA 283,2018-036A,2026-06-15T11:59:15.199008,1.00267801,.0000468,0.0182,1.8047,172.3670,43.5385,0,U,43339,999,2527,0,0,0
COSMOS 2526,2018-037A,2026-06-18T14:08:51.681984,1.00269106,.00005636,0.0289,34.2955,200.0654,12.7395,0,U,43432,999,2997,0,-.351E-5,0
APSTAR-6C,2018-041A,2026-06-17T20:26:58.911936,1.00268661,.0000917,0.0269,17.8003,325.0673,3.9650,0,U,43450,999,2981,0,-.324E-5,0
BANGABANDHUSAT-1,2018-044A,2026-06-18T14:57:42.418368,1.00269128,.0001694,0.0311,85.9566,359.0021,165.4112,0,U,43463,999,2972,0,-.369E-5,0
SES-12,2018-049A,2026-06-18T15:25:21.397728,1.00270741,.00007438,0.0149,21.9698,268.3300,302.9157,0,U,43488,999,2943,0,-.276E-5,0
FENGYUN 2H,2018-050A,2026-06-18T15:00:36.694944,1.00269447,.00019671,3.0356,79.0525,138.2508,354.1055,0,U,43491,999,2945,0,-.137E-5,0
BEIDOU-2 IGSO-7,2018-057A,2026-06-17T22:02:12.630336,1.00251228,.01051574,55.1940,163.0508,238.0681,305.4943,0,U,43539,999,2913,0,-.4E-6,0
TELSTAR 19V,2018-059A,2026-06-18T10:54:40.837248,1.00274890,.00025708,0.0192,170.6171,297.8062,258.9346,0,U,43562,999,2915,0,-.286E-5,0
TELKOM 4 (MERAH PUTIH),2018-064A,2026-06-18T14:51:17.266176,1.00267104,.00014474,0.0163,0.3574,120.9053,116.4107,0,U,43587,999,2889,0,0,0
TELSTAR 18V,2018-069A,2026-06-18T15:09:34.115904,1.00270826,.00017585,0.0183,295.6693,147.3455,189.2363,0,U,43611,999,2865,0,-.3E-5,0
AZERSPACE 2 (IS-38),2018-074A,2026-06-18T11:25:30.382176,1.00271426,.00012906,0.0177,12.1555,76.3170,34.7186,0,U,43632,999,2846,0,.13E-5,0
HORIZONS-3E,2018-074B,2026-06-18T13:43:32.930688,1.00271511,.00007767,0.0085,101.9714,173.2693,6.4569,0,U,43633,999,2835,0,-.37E-6,0
